NORAD_CAT_ID,OBJECT_NAME,OBJECT_TYPE,EPOCH,MEAN_MOTION,ECCENTRICITY,INCLINATION,RA_OF_ASC_NODE,ARG_OF_PERICENTER,MEAN_ANOMALY,BSTAR,MEAN_MOTION_DOT,MEAN_MOTION_DDOT,TLE_LINE0,TLE_LINE1,TLE_LINE2,SEMIMAJOR_AXIS,PERIOD,APOGEE,PERIGEE,DECAYED
53031.0,STARLINK-4137,PAYLOAD,2023-09-27 23:26:10,15.08837385,0.0001599,53.2163,126.1563,99.6404,260.4769,0.00031288,4.695e-05,0.0,0 STARLINK-4137,1 53031U 22076AX  23270.97651031  .00004695  00000-0  31288-3 0  9994,2 53031  53.2163 126.1563 0001599  99.6404 260.4769 15.08837385 68673,6917.888,95.438,540.86,538.647,0.0
53031.0,STARLINK-4137,PAYLOAD,2023-09-28 21:41:34,15.08853461,0.0001527,53.2153,121.992,99.3799,260.7366,0.00052795,8.127e-05,0.0,0 STARLINK-4137,1 53031U 22076AX  23271.90386722  .00008127  00000-0  52795-3 0  9990,2 53031  53.2153 121.9920 0001527  99.3799 260.7366 15.08853461 68340,6917.839,95.437,540.761,538.648,0.0
53031.0,STARLINK-4137,PAYLOAD,2023-09-29 00:52:20,15.08856619,0.0001523,53.2152,121.3974,99.8131,260.3033,0.00055788,8.606e-05,0.0,0 STARLINK-4137,1 53031U 22076AX  23272.03634568  .00008606  00000-0  55788-3 0  9996,2 53031  53.2152 121.3974 0001523  99.8131 260.3033 15.08856619 68832,6917.83,95.437,540.748,538.641,0.0
53031.0,STARLINK-4137,PAYLOAD,2023-09-29 18:21:34,15.08850231,0.000149,53.2153,118.1247,98.0803,262.0358,0.00019916,2.884e-05,0.0,0 STARLINK-4137,1 53031U 22076AX  23272.76498325  .00002884  00000-0  19916-3 0  9990,2 53031  53.2153 118.1247 0001490  98.0803 262.0358 15.08850231 68945,6917.849,95.437,540.745,538.683,0.0
53031.0,STARLINK-4137,PAYLOAD,2023-09-29 19:56:57,15.08849669,0.0001478,53.2156,117.8272,98.4169,261.6991,0.00016756,2.38e-05,0.0,0 STARLINK-4137,1 53031U 22076AX  23272.83122316  .00002380  00000-0  16756-3 0  9992,2 53031  53.2156 117.8272 0001478  98.4169 261.6991 15.08849669 68487,6917.851,95.437,540.738,538.693,0.0
53031.0,STARLINK-4137,PAYLOAD,2023-09-30 07:04:39,15.08844754,0.0001403,53.2159,115.7463,89.8736,270.2417,6.2458e-05,7.06e-06,0.0,0 STARLINK-4137,1 53031U 22076AX  23273.29490367  .00000706  00000-0  62458-4 0  9998,2 53031  53.2159 115.7463 0001403  89.8736 270.2417 15.08844754 69021,6917.866,95.437,540.701,538.76,0.0
53031.0,STARLINK-4137,PAYLOAD,2023-10-01 06:55:26,15.08847244,0.0001399,53.2161,111.2844,94.7164,265.3988,8.6116e-05,1.083e-05,0.0,0 STARLINK-4137,1 53031U 22076AX  23274.28850270  .00001083  00000-0  86116-4 0  9997,2 53031  53.2161 111.2844 0001399  94.7164 265.3988 15.08847244 68701,6917.858,95.437,540.691,538.755,0.0
53031.0,STARLINK-4137,PAYLOAD,2023-10-01 18:03:08,15.08850682,0.0001302,53.2156,109.2034,90.304,269.8101,0.00025754,3.814e-05,0.0,0 STARLINK-4137,1 53031U 22076AX  23274.75218192  .00003814  00000-0  25754-3 0  9994,2 53031  53.2156 109.2034 0001302  90.3040 269.8101 15.08850682 69248,6917.848,95.437,540.613,538.812,0.0
53031.0,STARLINK-4137,PAYLOAD,2023-10-01 19:38:31,15.08854245,0.0001302,53.2156,108.9058,90.4028,269.7113,0.00033919,5.116e-05,0.0,0 STARLINK-4137,1 53031U 22076AX  23274.81842069  .00005116  00000-0  33919-3 0  9996,2 53031  53.2156 108.9058 0001302  90.4028 269.7113 15.08854245 68786,6917.837,95.437,540.603,538.801,0.0
53031.0,STARLINK-4137,PAYLOAD,2023-10-02 02:00:03,15.08864563,0.000131,53.2155,107.7172,82.5066,277.6075,0.00066106,0.00010255,0.0,0 STARLINK-4137,1 53031U 22076AX  23275.08337706  .00010255  00000-0  66106-3 0  9997,2 53031  53.2155 107.7172 0001310  82.5066 277.6075 15.08864563 69298,6917.805,95.436,540.577,538.764,0.0
53031.0,STARLINK-4137,PAYLOAD,2023-10-02 19:29:18,15.08843991,0.0001392,53.2158,104.4456,86.9867,273.1284,0.00026836,3.986e-05,0.0,0 STARLINK-4137,1 53031U 22076AX  23275.81202313  .00003986  00000-0  26836-3 0  9992,2 53031  53.2158 104.4456 0001392  86.9867 273.1284 15.08843991 69405,6917.868,95.437,540.696,538.77,0.0
53031.0,STARLINK-4137,PAYLOAD,2023-10-03 11:23:10,15.0884284,0.0001417,53.2155,101.4741,90.6362,269.4793,0.00057928,8.944e-05,0.0,0 STARLINK-4137,1 53031U 22076AX  23276.47442587  .00008944  00000-0  57928-3 0  9999,2 53031  53.2155 101.4741 0001417  90.6362 269.4793 15.08842840 69030,6917.872,95.437,540.717,538.756,0.0
53031.0,STARLINK-4137,PAYLOAD,2023-10-03 17:44:42,15.08843991,0.0001298,53.2154,100.2841,90.6331,269.481,0.00040651,6.188e-05,0.0,0 STARLINK-4137,1 53031U 22076AX  23276.73938571  .00006188  00000-0  40651-3 0  9994,2 53031  53.2154 100.2841 0001298  90.6331 269.4810 15.08843991 69544,6917.868,95.437,540.631,538.835,0.0
53031.0,STARLINK-4137,PAYLOAD,2023-10-04 12:49:20,15.0884578,0.0001389,53.2163,96.7165,92.3545,267.7607,0.00030119,4.509e-05,0.0,0 STARLINK-4137,1 53031U 22076AX  23277.53426531  .00004509  00000-0  30119-3 0  9994,2 53031  53.2163  96.7165 0001389  92.3545 267.7607 15.08845780 69193,6917.863,95.437,540.689,538.767,0.0
53031.0,STARLINK-4137,PAYLOAD,2023-10-04 19:10:52,15.08849496,0.0001305,53.2166,95.5276,91.4088,268.7054,0.0003051,4.572e-05,0.0,0 STARLINK-4137,1 53031U 22076AX  23277.79922285  .00004572  00000-0  30510-3 0  9994,2 53031  53.2166  95.5276 0001305  91.4088 268.7054 15.08849496 69708,6917.851,95.437,540.619,538.814,0.0
53031.0,STARLINK-4137,PAYLOAD,2023-10-04 20:46:15,15.08851331,0.0001344,53.2167,95.2301,91.6564,268.4582,0.00031609,4.748e-05,0.0,0 STARLINK-4137,1 53031U 22076AX  23277.86546183  .00004748  00000-0  31609-3 0  9996,2 53031  53.2167  95.2301 0001344  91.6564 268.4582 15.08851331 69242,6917.846,95.437,540.641,538.781,0.0
53031.0,STARLINK-4137,PAYLOAD,2023-10-05 04:43:11,15.08841824,0.0001564,53.2161,93.7428,89.3049,270.8123,9.9958e-05,1.303e-05,0.0,0 STARLINK-4137,1 53031U 22076AX  23278.19666541  .00001303  00000-0  99958-4 0  9990,2 53031  53.2161  93.7428 0001564  89.3049 270.8123 15.08841824 69766,6917.875,95.437,540.822,538.658,0.0
53031.0,STARLINK-4137,PAYLOAD,2023-10-05 12:40:07,15.08839299,0.0001649,53.2177,92.2569,96.9703,263.1477,6.8951e-05,8.09e-06,0.0,0 STARLINK-4137,1 53031U 22076AX  23278.52786683  .00000809  00000-0  68951-4 0  9996,2 53031  53.2177  92.2569 0001649  96.9703 263.1477 15.08839299 69342,6917.883,95.438,540.888,538.607,0.0
53031.0,STARLINK-4137,PAYLOAD,2023-10-05 22:12:26,15.08846486,0.0001666,53.2173,90.4725,95.4614,264.6568,0.00019499,2.817e-05,0.0,0 STARLINK-4137,1 53031U 22076AX  23278.92530406  .00002817  00000-0  19499-3 0  9993,2 53031  53.2173  90.4725 0001666  95.4614 264.6568 15.08846486 69406,6917.861,95.437,540.878,538.573,0.0
53031.0,STARLINK-4137,PAYLOAD,2023-10-06 10:55:31,15.08841629,0.0001879,53.2155,88.0915,103.0594,257.0608,4.8946e-05,4.91e-06,0.0,0 STARLINK-4137,1 53031U 22076AX  23279.45522649  .00000491  00000-0  48946-4 0  9998,2 53031  53.2155  88.0915 0001879 103.0594 257.0608 15.08841629 69954,6917.875,95.437,541.04,538.441,0.0
53031.0,STARLINK-4137,PAYLOAD,2023-10-06 12:30:54,15.08841028,0.0001893,53.2157,87.7939,104.0195,256.1007,5.2344e-05,5.45e-06,0.0,0 STARLINK-4137,1 53031U 22076AX  23279.52146668  .00000545  00000-0  52344-4 0  9996,2 53031  53.2157  87.7939 0001893 104.0195 256.1007 15.08841028 69497,6917.877,95.437,541.052,538.433,0.0
53031.0,STARLINK-4137,PAYLOAD,2023-10-06 18:52:27,15.08843025,0.0001508,53.2171,86.6061,93.7225,266.394,0.00015799,2.228e-05,0.0,0 STARLINK-4137,1 53031U 22076AX  23279.78642771  .00002228  00000-0  15799-3 0  9992,2 53031  53.2171  86.6061 0001508  93.7225 266.3940 15.08843025 69531,6917.871,95.437,540.779,538.693,0.0
53031.0,STARLINK-4137,PAYLOAD,2023-10-07 10:46:19,15.08839764,0.0001637,53.2178,83.6333,91.0396,269.0784,0.00018669,2.684e-05,0.0,0 STARLINK-4137,1 53031U 22076AX  23280.44883155  .00002684  00000-0  18669-3 0  9995,2 53031  53.2178  83.6333 0001637  91.0396 269.0784 15.08839764 69632,6917.881,95.438,540.879,538.614,0.0
53031.0,STARLINK-4137,PAYLOAD,2023-10-07 20:18:37,15.08848713,0.0001508,53.2171,81.8485,85.8909,274.2256,0.00038781,5.891e-05,0.0,0 STARLINK-4137,1 53031U 22076AX  23280.84626926  .00005891  00000-0  38781-3 0  9990,2 53031  53.2171  81.8485 0001508  85.8909 274.2256 15.08848713 70167,6917.854,95.437,540.762,538.676,0.0
53031.0,STARLINK-4137,PAYLOAD,2023-10-08 10:37:06,15.08840904,0.0001602,53.2168,79.1718,92.035,268.0825,0.00018122,2.597e-05,0.0,0 STARLINK-4137,1 53031U 22076AX  23281.44243190  .00002597  00000-0  18122-3 0  9992,2 53031  53.2168  79.1718 0001602  92.0350 268.0825 15.08840904 70254,6917.878,95.437,540.851,538.634,0.0
53031.0,STARLINK-4137,PAYLOAD,2023-10-08 20:09:24,15.08850808,0.0001509,53.2164,77.3873,92.2566,267.8598,0.00029598,4.427e-05,0.0,0 STARLINK-4137,1 53031U 22076AX  23281.83986699  .00004427  00000-0  29598-3 0  9996,2 53031  53.2164  77.3873 0001509  92.2566 267.8598 15.08850808 69840,6917.847,95.437,540.756,538.668,0.0
53031.0,STARLINK-4137,PAYLOAD,2023-10-09 04:06:20,15.08846632,0.0001535,53.2173,75.9012,89.5315,270.5853,0.00020743,3.015e-05,0.0,0 STARLINK-4137,1 53031U 22076AX  23282.17106859  .00003015  00000-0  20743-3 0  9991,2 53031  53.2173  75.9012 0001535  89.5315 270.5853 15.08846632 70363,6917.86,95.437,540.787,538.663,0.0
53031.0,STARLINK-4137,PAYLOAD,2023-10-09 13:38:39,15.08841799,0.0001557,53.2167,74.1158,100.2808,259.8359,4.9477e-05,5e-06,0.0,0 STARLINK-4137,1 53031U 22076AX  23282.56850969  .00000500  00000-0  49477-4 0  9994,2 53031  53.2167  74.1158 0001557 100.2808 259.8359 15.08841799 69953,6917.875,95.437,540.817,538.663,0.0
53031.0,STARLINK-4137,PAYLOAD,2023-10-09 16:49:25,15.0884475,0.0001566,53.2171,73.5212,99.4837,260.6332,8.0699e-05,9.97e-06,0.0,0 STARLINK-4137,1 53031U 22076AX  23282.70098878  .00000997  00000-0  80699-4 0  9994,2 53031  53.2171  73.5212 0001566  99.4837 260.6332 15.08844750 69976,6917.866,95.437,540.814,538.648,0.0
53031.0,STARLINK-4137,PAYLOAD,2023-10-10 13:29:26,15.088475,0.0001602,53.2172,69.6564,98.6704,261.4469,0.00015829,2.233e-05,0.0,0 STARLINK-4137,1 53031U 22076AX  23283.56210707  .00002233  00000-0  15829-3 0  9993,2 53031  53.2172  69.6564 0001602  98.6704 261.4469 15.08847500 70101,6917.857,95.437,540.831,538.614,0.0
